"Names","Street Address","City","State","Zip Code"
"--- TBD / Unassigned ---",,,,
"Al Smith Circle Field","225 Al Smith Circle","Berryville","VA","22611"
"Algonkian ES","20196 Carter Court","Sterling","VA","20165"
"Alice Deal",,,,
"Allens Pond Complex","3330 Northview Drive","Bowie","MD","20716"
"Alpha Ridge Park","11600 Old Frederick Rd","Marriottsville","MD","21104"
"Altholton High School","6520 Freetown Road","Columbia","MD","21044"
"Andy Brown","3330 Northview Drive","Bowie","MD","20716"
"Angler Field",,,,
"Annandale HS","4700 Medford Dr","Annandale","VA","22003"
"Annapolis Sports Complex","1411 Cedar Park Road","Annapolis","MD",
"Archbishop Spalding HS","8080 New Cut Road","Severna Park","MD","21144"
"Arcola Comm. Ctr.","Gum Springs Road","Aldie","VA","20105"
"Arcola ES","41740 Tall Cedars Parkway","Aldie","VA","20105"
"Argyle Local Park","1030 Forest Glen Rd","Silver Spring","MD","20901"
"Argyle MS","2400 Bel Pre Rd","Silver Spring","MD","20906"
"Arlington Hall","300 South Taylor Street","Arlington","VA","22204"
"Arrowbrook","2351 Feld Point Rd","Herndon","Va 20171",
"Arrowhead","5200 Arrowhead Park Dr","Centreville","VA","20122"
"Arundel HS","1001 Annapolis Road","Gambrills","MD","21054"
"Arundel MS",,,,
"Athey","7614 Lee Highway","Warrenton","VA","20186"
"Auburn Middle School","7270 Riley Road","Warrenton","VA","20187"
"Auth Village Field","6111 Baxter Drive","Camp Springs","MD",
"Avenel LP","10051 Oaklyn Dr","Potomac","MD","20854"
"Avenel LP","10051 Oaklyn Dr","Potomac","MD","20854"
"Baileys ES Turf","6111 Knollwood Drive","Falls Church","VA","22041"
"Ballanger Creek","MD",,,
"Ballenger Creek","5420 Ballenger Creek Pike","Frederick","MD","21703"
"Ballenger Creek Park","5420 Ballenger Creek Pike","Frederick","MD","21703"
"Banneker MS","14800 Perrywood Drive","Burtonsville","MD","20866"
"Barcroft Soccer Field","4200 S Four Mile Run Drive","Arlington","VA","22204"
"Barnesfield","Barnesfield RD","Chantilly","VA","20151"
"Baron Cameron Park","11300 Baron Cameron Avenue","Reston","VA","20190"
"Barrie Private School","13500 Layhill Road","Silver Spring","MD","20906"
"Barry Farm Recreation Center","1230 Sumner Road SE","Washington","DC","20020"
"Barry Farm Recreation Center","1230 Sumner Road SE","Washington","DC","20020"
"Bates Heritage","121 S Villa Avenue","Annapolis","MD","21401"
"Bates Heritage","121 S Villa Avenue","Annapolis","MD","21401"
"Battlefield Middle School","11120 Leavells Rd","Fredericksburg","VA","22407"
"Beech Tree ES","3401 Beechtree Ln","Falls Church","VA","22042"
"Bell Branch",,,,
"Bell Branch Athletic Complex","2400 Davidsonville Rd","Gambrills","MD","21054"
"Belmont Park","900 Alexis Road","Woodbridge","VA","22191"
"Belmont Ridge MS","19045 Upper Belmont Place","Leesburg","VA","20176"
"Belmont Ridge MS","19045 Upper Belmont Place","Leesburg","VA","20176"
"Belmont Station","20235 Nightwatch Street","Ashburn","VA","20147"
"Ben Brenman Park","4800 Brenman park Drive","Alexandria","VA","22304"
"Benfield Elementary","365 Lynwood Drive","Severna Park","MD","21146"
"Benfield ES","365 Lynwood Rd","Severna Park","MD","21146"
"Benjamin Banneker","6501 N 16th Street","Arlington","VA","22205"
"BGE","9550 HG Trueman Road","Lusby","MD","20657"
"Blandair  Park","7120 Oakland Mills Rd","Columbia","Md 21046",
"Blandair Regional Park # 3","5750 Oakland Mills Rd","Columbia","Md 21046",
"Bles Park","44830 Riverside Parkway","Ashburn","VA","20147"
"Blue Ridge",,,,
"Blueberry Hill","MD",,,
"Bluemont Junction","5900 Wilson Blvd","Arlington","VA","22205"
"Bowie Mill Park","17311 Bowie Mill Road","Derwood","MD","20855"
"Braddock Park","13300 Braddock Rd","Clifton","VA","20124"
"Bradley ES","647 Hastings Lane","Warrenton","VA","20186"
"Brambleton Park","22377 Belmont Ridge Road","Ashburn","VA","20148"
"Bready Park(at Herndon Community Center)","814 Ferndale Ave","Herndon","Va 20170",
"Brenman Park","4800 Brenman park Drive","Alexandria","VA","22304"
"Bretton Woods","15700 River Road","Germantown","MD","20874"
"Briggs Chaney MS #1","1901 Rainbow Dr","Silver Spring","MD","20905"
"Broad Run HS","21670 Ashburn Road","Ashburn","VA","20147"
"Broadneck High School","1265 Green Holly Drive","Annapolis","MD","21409"
"Broadneck Park","699 College Parkway","Annapolis","MD","21409"
"Brookfield","4200 Lees Corner Rd","Chantilly","VA","20151"
"Browns Woods Park","317 Forest Beach Road","Annapolis","MD","21409"
"Bryant Adult Center","2709 Popkins Land","Alexandria","VA","22306"
"Bryant Alt HS","2709 Popkins Lane","Alexandria","VA","22306"
"Bryantown Sports Complex","5665 Bryantown Road","Waldorf","MD","20601"
"Buck Branch Neighborhood Park","8704 Bells Mill Road","Potomac","MD",
"Buck Branch Park","8704 Bells Mill Road","Potomac","MD","20852"
"Buckingham","2800 Barberry Lane","Bowie","MD","20715"
"Bull Run Middle School","6308 Catharpin Rd","Gainesville","VA","20155"
"Bull Run Park","Bull Run Dr","Manassas","VA",
"Bundy Field","429 O Street","NW","Washington","DC"
"Burtonsville ES","15516 Old Columbia Pike","Burtonsville","MD","20866"
"Bush HIll ES","5927 Westchester Street","Alexandria","VA","22310"
"Byrnes Ridge","24915 Mineral Springs Circle","Aldie","VA","20105"
"C. Hunter Ritchie Elementary School","4416 Broad Run Church Road","Warrenton","VA","20187"
"Calverton School","300 Calverton School Road","Huntingtown","MD","20639"
"Camelot ES","8100 Guinevere Dr","Annandale","VA","22003"
"Camp Shoresh","2428 Pleasant View Rd","Adamstown","MD","21710"
"Camp Springs Park","7001 Robinia Road","Temple Hills","MD","20748"
"Capital One","1680 Capital One Drive","McLean","VA","22102"
"Captain James E Daly ES","20301 Brandermill Dr","Germantown","MD","20876"
"Carl Sandburg MS","8428 Fort Hunt Road","Alexandria","VA","22308"
"Carroll County SC","2225 Littlestown Pike","Westminster","MD","21158"
"Carsins Run Turf Farm","500 Carsins Run Road","Aberdeen","MD","21001"
"Carter Baron","16th &amp; Kennedy Street","NW","Washington","DC"
"CCBC Dundalk","7200 Sollers Point Road","Baltimore","MD","21222"
"CCBC Essex","7201 Rossville Blvd","Baltimore","MD","21237"
"Cedar Creek Local Park","13513 Richter Farm Rd","Germantown","MD","20874"
"Cedar Creek Local Park","13513 Richter Farm Rd","Germantown","MD","20874"
"Cedar Lane (Howard Co. East Area)","10725 Rt 108","Columbia","MD","21044"
"Cedar Lane Elementary School-Ashburn","43700 Tolamac Dr","Ashburn","VA","20148"
"Cedar Lane Park","1100 Cedar Lane","Belair","MD","21015"
"Cedar Lane Park","1100 Cedar Lane","Belair","MD","21015"
"Cedar Lane Park","1100 Cedar Lane","Belair","MD","21015"
"Cedar Lane Park","1100 Cedar Lane","Belair","MD","21015"
"Cedar Lane Park","1100 Cedar Lane","Belair","MD","21015"
"Centennial Park West","4651 Centennial Lane","Ellicott City","MD","21042"
"Centerway LP","9551 Centerway Rd","Gaithersburg","MD","20879"
"Centreville High School","6001 Union Mill Rd","Clifton","VA","20124"
"Centreville High School","6001 Union Mill Rd","Clifton","VA","20124"
"Centreville HS","6001 Union Mill Road","Clifton","MD","20124"
"Chancellor Elementary School","5995 Plank Road","Fredericksburg","VA","22407"
"Chancellor Middle School","6320 Harrison Road","Fredericksburg","VA","22407"
"Chancellor Middle School (Fredericksburg","6320 Harrison Rd","Fredericksburg","VA","22407"
"Chancellors Run Reg Park","21905 Chancellors Run Road","Great Mills","MD","20634"
"Chantilly High School","4201 Stringfellow Road","Chantilly","VA","20151"
"Chaptico Park","26600 Budds Creek Road","Mechanicsville","MD","20659"
"Cherry Run ES","9732 Ironmaster Dr","Burke","VA","22015"
"Chesterbrook Academy","3753 Centreview Drive","Chantilly","VA","20151"
"Chesterbrook ES","1753 Kirby Rd","McLean","VA",
"Chesterfield","4901 S Chesterfield Rd","Arlington","VA","22206"
"Chinn Park","Chinn Park Road","Dale City","VA","22193"
"Christendom College","134 Christendom Drive","Front Royal","VA","22630"
"Church by the Chesapeake","3255 broomes island road","port republic","md 20676",
"Church by the Chesapeake","3255 broomes island road","port republic","md 20676",
"Church by the Chesapeake","3255 broomes island road","port republic","md 20676",
"Church Road","2112 Church Road","Bowie","MD","20716"
"Clarks Crossing","9850 Clarks Crossing Rd","Vienna","VA","22182"
"Clarksburg Village LP","12520 Blue Sky Dr","Clarksburg","MD","20871"
"Clear Spring LP","20301 Brandermill Drive","Germantown","MD","20876"
"Clearview ES","12635 Builders Rd","Herndon","VA","20170"
"Clermont ES","5720 Clermont Drive","Alexandria","VA","22310"
"College Park Community Center","50151 Pierce Avenue","College Park","MD","20740"
"Colonial Forge HS","550 Courthouse Road","Stafford","VA","22554"
"Colvin Run ES","1400 Trap Road","Vienna","VA","22182"
"Concord LP","7210 Hidden Creek Rd","Bethesda","MD","20817"
"Congressional School","3229 Sleepy Hollow Rd","Falls Church","Va 22042",
"Conklin Park","25701 Donegal Drive","Chantilly","VA","20152"
"Cooper MS","977 Balls Hill Rd","McLean","VA","22101"
"Courthouse Community Center","29 Stafford Avenue","Stafford","VA","22554"
"Covanent Park",,,,
"Cove Point Park","750 Cove Point Road","Lusby","MD","20657"
"Covenant Park","4560 Centennial Lane","Ellicott City","MD","21042"
"Covenant Park","4560 Centennial Lane","Ellicott City","MD","21042"
"Cranes Lane","200 Cranes Lane","Ranson","WV","25438"
"Cranes Lane Park","595 Cranes Lane","Ranson","WV","25438"
"Crofton Meadows ES","2020 Tilghman Drive","Crofton","MD","21114"
"Cross Creek Club Park","3530 Briggs Chaney Rd","Silver Spring","MD","20904"
"Cross Creek Community Park","3530 Briggs Chaney Rd","Silver Spring","MD","20904"
"Crossfield ES","2791 Fox Mill Rd","Herndon","VA","20191"
"Crownsville Hospital","105 Circle Dr","Crownsville","MD","21032"
"Culpeper Complex","Greens Corner Road and Cyclone Way","Culpeper","VA","22701"
"Culpeper Complex","Greens Corner Road and Cyclone Way","Culpeper","VA","22701"
"Curtis Park","58 Jesse Curtis Ln","Fredericksburg","VA","22406"
"Damascus Reg Park","23723 Kings Valley Road","Damascus","MD","20872"
"Darnestown LP","14211 Darnestown Road","Darnestown","MD","20878"
"Davidsonville Elementary School","962 Central Avenue","Davidsonville","MD","21035"
"Davidsonville Park","3042 Patuxent River Road","Davidsonville","MD","21035"
"Davidsonville Park","3042 Patuxent River Road","Davidsonville","MD","21035"
"Davidsonville Ruritan","3358 Davidsonville Rd","Davidsonville","MD","21035"
"Dayton Oaks Park","4691 Ten Oaks Road","Dayton","MD","21036"
"Deer Park","637 Deer Park Rd","Westminster","MD","21157"
"Deer Park ES","Lyons Mill Rd","east of Marriottsville Rd","Randallstown","MD"
"Dickinson Field","7455 Edenbrook Drive","Columbia","MD","21046"
"Dickinson Park","7455 Eden Brook Drive","Columbia","MD","21046"
"Dixon Park","1300 Dixon Street","Fredericksburg","VA","22401"
"Dr Henry A Wise High School","12650 Brooke Ln,","Upper Marlboro","MD","20772"
"Draper Drive Park","9797 Beech Drive","Fairfax","VA","22031"
"Duff Green Park","75 James Ashby Pkwy","Fredericksburg","VA","22405"
"Dufief LP","11336 Brandyhall Lane","Darnestown","MD","20878"
"Dufief LP #1","15001 Dufief Drive","Gaithersburg","MD","20878"
"Dunkirk District Park","10750 Southern Maryland Blvd (MD Rt 4)","Dunkirk","MD","20754"
"Dunn Loring","2334 Gallows Rd","Dunn Loring","VA","22027"
"Dupont Soccer Complex","159 Dupont rd","Martinsburg","wv",
"Dupont Soccer Complex","159 Dupont rd","Martinsburg","wv",
"Eagle Ridge MS","42901 Waxpool Rd","Broadlands","VA","20148"
"Eagle View ES","4500 Dixie Hill Road","Fairfax","VA","22030"
"East Columbia Library","6600 Cradlerock Way","Columbia","MD","21045"
"Eastern High School","1700 East Capitol St NE","Washington","DC","20003"
"Eastern Regional Park","11723 Eastern Avenue","Baltimore","MD","21220"
"Eastgate Park","43664 Tall Cedars Parkway","Chantilly","VA",
"EC Lawrence Park","Sully Rd / Route 28","Centreville","VA","20120"
"EC Lawrence Park","Sully Rd / Route 28","Centreville","VA","20120"
"Edison High School","5801 Franconia Road","Alexandria","VA","22310"
"Edison HS Aux Field","5801 Franconia Road","Alexandria","VA","22310"
"Edison HS Aux Right","5801 Franconia Road","Alexandria","VA","22310"
"EDS","Centreville and Wall Roads","Oak Hill","VA","20171"
"Ellington School","38th &amp; R St NW","Washington","DC","20007"
"Elliott-Hine Middle School","1830 Constitution Avenue","NE","Washington DC","20002"
"Embrey Mill Park","1600 Mine Road","Stafford","VA","22554"
"Emerald Hill","VA",,,
"Emerald Hill ES","11245 Rixeyville Rd","Culpeper","VA","22701"
"Emerald Hill ES","11245 Rixeyville Rd","Culpeper","VA","22701"
"Enfield Chase","North View Drive","Bowie","MD","20715"
"English Manor LP","4511 Bestor Drive","Rockville","MD","20853"
"Episcopal HS Turf","1200 North Quaker lane","Alexandria","VA",
"Essex Community College",,,,
"Evergreen Sportsplex","19623 Evergreen Mill Road","Leesburg","VA",
"Fairfax Christian School","1624 Hunter Mill Rd","Vienna","VA","22182"
"Fairfax HS","3500 Old Lee Highway","Fairfax","VA","22030"
"Fairfax Villa ES","10900 Santa Clara Drive","Fairfax","VA","22030"
"Fairhaven Field","9200 Fairhaven Ave","Upper Marlboro","MD","20772"
"Fairhill ES","3001 Chichester Dr","Fairfax","VA","22031"
"Fairland Aquatic Center","13820 Old Gunpowder Road","Laurel","MD","20707"
"Fairland Aquatic Center","13820 Old Gunpowder Road","Laurel","MD","20707"
"Fairland Center","13313 Old Columbia Pike","Silver Spring","MD","20904"
"Fairland Rec Park","3928 Greencastle Rd","Burtonsville,","MD","20866"
"Fairview ES","5815 Ox Road","Fairfax Station","VA","22039"
"Fake Field",,,,
"Falls Church HS","7521 Jaguar Trail","Falls Church","VA","22042"
"Falls Road Park","12600 Falls Road","Potomac","MD","20854"
"Fannie W. Fitzgerald Elem. School","1550 Benita Fitzgerald Dr","Dale City","VA","22193"
"FASA Park Field Complex","1898 Mills Drive","Fredericksburg","VA","22408"
"Faulkner Ridge ES","Marble Faun Ct","Columbia","MD","21044"
"FCSC/Northern Complex","4155 Monroe Parkway","Marshall","VA","20115"
"FFC Park @ Spotsylvania Sportsplex","1898 Mills Drive","Fredericksburg","VA","22408"
"FFC Park @ Spotsylvania Sportsplex","1898 Mills Drive","Fredericksburg","VA","22408"
"Field of Dreams","6626 Bull Run Post Office Road","Centerville","VA","20120"
"Fields Park","850 N George Mason Drive","Arlington","VA","22207"
"Fincastle Field","44062 Fincastle Dr","Ashburn","VA","20147"
"Fort Reno Park","3904 Chesapeake St NW","Washington","DC","20016"
"Fort Stevens","13th and Van Buren Streets NW","Washington","DC","20012"
"Fort Ward Park","4301 West Braddock Rd","Alexandria","VA","22304"
"Fountain Hills LP","1237 Liberty Mill Road","Germantown","MD","20874"
"Fountain Rock Elementary","17145 Lappans Road","Hagerstown","MD","21740"
"Four Mile Run Field","3700 Commonwealth Avenue","Alexandria","VA",
"Four Seasons Sports Complex","2710 Hampstead-Mexico Rd (Rte 482)","Hampstead","MD","21074"
"Francis Scott Key HS","3825 Bark Hill Road","Union Bridge","MD","21791"
"Francis Scott Key MS","910 Schindler Dr","Silver Spring","MD","20903"
"Franconia ES","6301 Beulah Street","Alexandria","VA","22310"
"Franconia Park","6100 Cloud Dr","Springfield","VA","22150"
"Franklin Glen","13395 Springhaven Dr","Fairfax","VA","22033"
"Franklin MS","3300 Lees Corner Rd","Chantilly","VA","20151"
"Fred Crabtree","2791 Fox Mill Rd","Herndon","VA","20171"
"Frederick Community College","7932 Opossumtown Pike","Frederick","MD","21702"
"Fredericksburg Academy","10800 Academy Drive","Fredericksburg","VA","22408"
"Freedom Hill ES","1945 Lord Fairfax Road","Vienna","VA",
"Freedom HS","25450 Riding Center Drive","South Riding","VA","20152"
"Freedom Park (FSC)","1899 Buttercup Road","Eldersburg","MD","21784"
"Freedom Park (Loudoun)","101 Colonel Grenata Circle","SE","Leesburg","VA"
"Friends Meeting School","3232 Green Valley Road","Ijamsville","MD","21754"
"Friendship (WIN, VA)","627 North Pleasant Valley Road","Winchester","VA","22601"
"Friendship Vally (MD) ES","1100 Gist Road","Westminster","MD","21157"
"Ft. Meade HS","1100 Clarke Rd","Ft Meade","MD","20755"
"Gallaudet University","800 Florida Avenue","NE","Washington","DC"
"Garrison Forest School","300 Garrison Forest Road","Owings Mill","MD","21117"
"Garrisonville Elementary (GEMS)","100 Wood Drive,","Stafford","VA","22556"
"Generals Highway","Crownsville Rd","Crownsville","MD","21032"
"George C. Marshall High School","7731 Leesburg Pike","Falls Church","VA","22043"
"George Mason",,,,
"George Mason HS","Rt 7/Leesburg Pike","Falls Church","VA","22046"
"George Mason University","4400 University Dr","Fairfax","VA","22030"
"George Washington",,,,
"George Washington",,,,
"George Washington MS","1005 Mount Vernon Avenue","Alexandria","VA","22301"
"George Washington Rec Center","8426 Old Mt Vernon Rd","Alexandria","VA","22309"
"Gibbs ES","12615 Royal Crown Drive","Germantown","MD","20876"
"Glasgow MS","4101 Fairfax Parkway","Alexandria","VA","22312"
"Glen Allen","15600 Atlantis Dr","Bowie","MD","20716"
"Glenelg Country School","12793 Folly Quarter Rd","Ellicott City","MD","21042"
"Glenelg High School","14025 Burntwoods Rd","Glenelg","MD","21737"
"Godwin Middle School","14800 Darbydale Avenue","Woodbridge","VA","22193"
"Gov. Thomas Johnson MS","1799 Schifferstadt Blvd","Frederick","MD","21701"
"Graham Park MS","VA",,,
"Grand Hamptons Park","1081 Safa Street","Herndon","VA","20170"
"Gray's Field","905 Fowler Road","Owings","MD","20736"
"Great Falls Grange","Georgetown Pike","Great Falls","VA","22066"
"Great Meadow","5089 Old Tavern Rd","Plains","VA","22171"
"Green Acres Center","4401 Sideburn Road","Fairfax","VA","22030"
"Green Acres Center","4401 Sideburn Road","Fairfax","VA","22030"
"Greenbriar 5A","4601 Stringfellow Road","Chantilly","VA","20151"
"Greenbriar 5B","4601 Stringfellow Road","Chantilly","VA","20151"
"Greenbriar Local Park","12525 Glen rRd","Travillah","MD","20854"
"Greenbriar Park 5","4601 Stringfellow Road","Chantilly","VA","20151"
"Greenbrier Pk","2700 Greenbrier Street","Arlington","VA","22207"
"Greensprings Coach Bob Elseth Field","7400-D Spring Village Dr","Springfield","VA","22150"
"Grist Mill Park","4710 Mount Vernon Memorial Highway","Alexandria","VA","22309"
"Grove Field","55 Hamilton St","Frederick","MD","21701"
"Gunners Branch","18509 Cinnamon Drive","Gernmantown","MD","20874"
"Gunners Lake LP #2","12698 Wisteria Drive","Germantown","MD","20874"
"Gunston Middle School","2700 S Lang St","Arlington","VA","22206"
"GWU - Mt. Vernon Campus","2100 Foxhall Road NW","Washington","DC","20007"
"Gwynn Park HS","13800 Brandywine Rd","Brandywine","MD","20613"
"Hadley Farms Middle School","7401 Hadley Farms Dr","Gaithersburg","MD","20879"
"Hagerstown Fair Grounds","351 North Cleveland Avenue","Hagerstown","MD","21740"
"Hagerstown SC Complex","13317 Cearfoss Pike","Hagerstown","MD","21740"
"Haley Smith Park","Van Buren","Herndon","VA","20170"
"Hallowing Point Park","Hallowing Point Rd (Rte 231)","Prince Frederick","MD","20678"
"Hammond High School","8800 Guilford Road","Columbia","MD","21046"
"Hammond Middle School","4646 Seminary Road","Alexandria","VA","22304"
"Handley High School","425 Handley Blvd","Winchester","VA","22601"
"Hawthorn Park","6195 Sunny Spring","Columbia","MD","21044"
"Hayfield High School","7630 Telegraph Rd","Alexandria","VA","22315"
"Hearst Rec Center","37th &amp; Idaho NW","Washington","DC","20016"
"Hellwig Park","14420 Bristow Road","Manassas","VA","20112"
"Henry Wise HS","12650 Brooke Lane","Upper Malboro","MD","20772"
"Henson Creek","5601 Temple Hill Road","Oxon Hill","MD","20745"
"Herndon Comm Center","814 Ferndale Ave","Herndon","VA","20172"
"Herndon Elem School","630 Dranesville Rd","Herndon","Va 20170",
"Herndon High School","700 Bennett Street","Herndon","Va 20170",
"Hernwood ES","9919 Marriotsville Rd","Randallstown","MD","21133"
"Heurich Park","2916 Nicholson Street","Hyattsville","MD","20782"
"Highland Middle School","597 Broadland Ave","Warrenton","VA","20187"
"Highland School","597 Broadview Avenue","Warrenton","VA","20186"
"Highland School-Middle School","597 Broadland Ave","Warrenton","VA","20187"
"Hollywood Park","44345 Joy Chapel Road","Hollywood","MD","20636"
"Holmes MS","6525 Montrose St","Alexandria","VA","22312"
"Holy Child School","9029 Bradley Blvd","Potomac","MD","20854"
"Holy Trinity Episcopal Day School (MS)","11902 Daisy Lane","Glenn Dale","MD","20769"
"Hood College","401 Rosemont Avenue","Frederick","MD","21701"
"Hood College","401 Rosemont Avenue","Frederick","MD","21701"
"Hooes Road Park","7233 Hooes Road","Springfield","VA","22150"
"Hotspur Park","11309 Tidewater Trail","Fredericksburg","VA","22408"
"Howard CC","10901 Little Patuxent Parkway","Columbia","MD","21044"
"Howard HS Turf","8700 Old Annapolis Road","Ellicott City","MD","21043"
"Howison Park","14716 Minnieville Road","Woodbridge","VA","22193"
"Howison Park","14716 Minnieville Road","Woodbridge","VA","22193"
"Hunterwoods Park","2503 Reston Parkway","Reston","VA","20191"
"Huntington Park","9695 Clocktower Lane","Columbia","MD","21046"
"Huston","Mitchellville Rd &amp; Allen Pond Park","Bowie","MD","20716"
"Hutchison ES","13209 Parcher Ave","Herndon","VA","20170"
"Hutchison Park","13209 Parcher Ave","Herndon","VA","20170"
"Ida Lee Park","60 Ida Lee Drive","Leesburg","VA","20176"
"Idylwood Park","7715 Virginia Ln","Falls Church","VA","22043"
"Island Creek ES","7855 Morning View Lane","Alexandria","VA","22315"
"Jackson MS","3020 Gallows Road","Merrifield","VA","22031"
"James G. Brumfield Elementary School","550 Alwington Boulevard","Warrenton","VA","20186"
"James Madison HS","James Madison Drive","Vienna","VA","22180"
"Jefferson Houston Elementary School","1501 Cameron Street","Alexandria","VA","22314"
"Jefferson Middle School","801 7th Street","SW","Washington","DC"
"Jellef Full Size","3265 S Street Northwest,","Washington","DC","20007"
"Jelleff Recreation Center","3265 S Street","NW","Washington","DC"
"Jim Claffey","14716 Minneville Road","Woodbridge","VA","22193"
"John Champe HS","41535 Sacred Mountain Street","Aldie","VA","20105"
"John Champe HS","41535 Sacred Mountain Street","Aldie","VA","20105"
"John Champe HS","41535 Sacred Mountain Street","Aldie","VA","20105"
"John Lee Pratt Mem. Park","120 River Rd","Stafford County","VA","22405"
"Jones Branch Park","8008 Jones Branch Road","Tysons","VA","22102"
"Joseph M. Hensley Park","4200 Eisenhower Ave","Alexandria","VA","22304"
"Judith Resnick ES","7301 Hadley Farms Rd","Gaithersburg","MD","20877"
"Julius West MS","651 Great Falls Road","Rockville","MD","20850"
"Kenmore MS","200 S Carlin Springs Road","Arlington","VA","22204"
"Kent Island High School","900 Love Point Rd","Stevensville","MD","21666"
"Kettle Run High School","7403 Academic Ave","Nokesville","VA","20181"
"Key Middle School","6402 Franconia Road","Springfield","VA","22150"
"Key School","534 Hillsmere Drive","Annapolis","MD","21403"
"KIHS Bermuda","900 Love Point Rd","Stevensville","MD","21666"
"Kilmer Int","8100 Wolftrap Rd","Dunn Loring","VA","22182"
"Kincheloe","8000 Kincheloe Road","Clifton","VA","20124"
"Kinder Park","1 Gali Sanchez Way","Millersville","MD","21108"
"KING'S GRANT COMMUNITY PARK","13251 Fenway Lane","Upper Marlboro","MD","20772"
"Kings Pond LP","23715 Clarksburg Rd","Clarksburg","MD","20871"
"Lacey Center","3705 Crest Drive","Falls Church","Va 22042",
"Lake Braddock  Secondary School","9200 Burke Lake Road","Burke","Va 22015",
"Lake Braddock Park","Burke","VA","22015",
"Lake Braddock Secondary School","9200 Burke Lake Rd","Burke","VA","22015"
"Lake Fairfax","Lake Fairfax Park","Reston","VA","20191"
"Lake Newport Park","Reston Parkway &amp; Lake Newport Rd","Reston","VA","20190"
"Lake Ridge Middle School","12350 Mohican Rd","Woodbridge","VA","22192"
"Lake Shore Woods Road Complex","850 Woods Road","Pasadena","MD","21122"
"Lakelands Park","1368 Main Street","Gaithersburg","MD","20878"
"Lancaster Park","21550 Willows Road","Lexington Park","MD","20653"
"Langley Forks","Georgetown Pike (near Route 123)","McLean","VA",
"Langley HS","6520 Georgetown Pike","McLean","VA","22101"
"Lanier MS","3801 Jermantown Road","Fairfax","VA","22030"
"Lansdowne Park","18900 Kipheart Drive","Leesburg","VA","20176"
"Larry Graves","300 Hillwood Ave","Falls Church","VA","22042"
"Laurel Hill ES","8390 Laurel Crest Drive","Lorton","VA","22079"
"Laurel Spring Park field #1","5940 Radio Station Road","La Plata Md","MD","20646"
"Laurel Spring Regional Park","5940 Radio Station Road","La Plata","MD","20646"
"Laurel Springs","5940 Radio Station Road","La Plata Md","MD","20646"
"Laurel Springs Park","5940 Radio Station Rd","La Plata","MD","20646"
"Leaman Local Park","14021 Eternity Rd","Germantown","MD","20874"
"Lee District Park","6601 Telegraph Road","Alexandria","VA","22310"
"Lee District Park #4 Left","6601 Telegraph Road","Alexandria","VA","22310"
"Lee District Park #4 Right","6601 Telegraph Road","Alexandria","VA","22310"
"Lee High School","6540 FRANCONIA ROAD","Springfield","Va 22150",
"Lees Corner ES","Lees Corner Road","Chantilly","VA","22030"
"Leesburg Annex","Old Waterford Rd","Leesburg","VA","22075"
"Leesburg F.C. Complex (KMO)","1002 East Market St","Leesburg","VA","20197"
"Legion Field","345 Legion Drive","Warrenton","VA","20186"
"Legion Stadium","8802 Courthouse Road (Rt 208)","Spotsyvania","VA","22553"
"Legion Track","8802 Courthouse Road (Rt 208)","Spotsyvania","VA","22553"
"Leo Santabella","9830 Georgetown Pike","Great Falls","VA","22066"
"Lewinsville Center","1609 Great Falls St","McLean","VA","22101"
"Lewinsville Park","1659 Chainbridge Rd","McLean","VA","22101"
"Liberty Elementary School","25491 Riding Center Drive","South Riding","Va 20152",
"Liberty High School","5855 Bartholow Rd","Eldersburg","md 21784",
"Liberty High School","5855 Bartholow Rd","Eldersburg","md 21784",
"Limerick","1800 Limerick St","Alexandria","VA","22314"
"Limerick","1800 Limerick St","Alexandria","VA","22314"
"Lincoln ES","250 Madison Street","Frederick","MD","21701"
"Linganore High School","12013 Old Annapolis","Frederick","MD","20701"
"Linway Terrace Park","6246 Linway Terrace","McLean","VA","22101"
"Linway Terrace Park","6246 Linway Terrace","McLean","VA","22101"
"Little River ES","43464 Hyland Hills Street","South Riding","VA","20152"
"Lockmeade Park","1104 Riva Ridge Drive","Great Falls","VA","22066"
"Loisdale Park","7601 Loisdale Road","Springfield","VA","22150"
"Long Bridge Park","475 S Old Jefferson Davis Highway","Arlington","VA","22207"
"Long Park","4603 James Madison Hwy","Haymarket","VA","20169"
"Long Reach High School","6101 Old Dobbin Road","Columbia","MD","21045"
"Loriella Park","10910 Leavells Road","Fredericksburg","VA","22407"
"Loudoun County HS","415 Dry Mill Road SW","Leesburg","VA","20175"
"Loudoun Soccer Park","19798 Sycolin Road","Leesburg","VA","20177"
"Loudoun Valley High School","340 N Maple Avenue","Purcellville","VA","20132"
"Louise Archer ES","324 Nutley Street NW","Vienna","VA",
"Lower Potomac Park","9515 Richmond Highway","Lorton","VA","22079"
"Lucketts Park","14550 James Monroe Hwy","Lucketts","VA","20176"
"Luther Jackson",,,,
"Luther Jackson Middle School","3020 Gallows Road","Falls Church","VA","22042"
"Lynbrook ES","5801 Backlick Rd","Springfield","VA","22150"
"Lynbrook LP","8008 Newdale Road","Bethesda","MD","20814"
"Lyndora","43624 Lucketts Bridge Circle","Ashburn","VA","20148"
"Madiera School","VA",,,
"Manchester Lakes Park","6775 Beulah Street","Alexandria","VA","22310"
"Manor Oaks Park","18820 Quarryman Terrace","Olny","MD","20832"
"Marine Barracks Field","1000 7th St","SE","Washington","DC"
"Marlboro Meadows","4428 Dery Rd","Upper Marlboro","MD","20772"
"Marlboro Meadows Field#1","4428 Dery Rd","Upper Marlboro","MD","20772"
"MARLTON PARK","9200 Fairhaven Avenue","Upper Marlboro","MD","20772"
"Marriotts Ridge High School Turf","12100 Woodford Drive","Marriottsville","MD","21104"
"Marriotts Ridge High School Turf","12100 Woodford Drive","Marriottsville","MD","21104"
"Marshall ES","12505 Kahns Rd","Manassas","VA","20112"
"Marshall High School","7731 Leesburg Pike","Falls Church","VA","22043"
"Marshall Northern Complex","4155 Monroe Parkway","Marshall","VA","20186"
"Marshall Road",,,,
"Martin Luther King, Jr. Rec Park","1120 Jackson Rd","Silver Spring","MD","20904"
"Martin Road Park","6701 Martin Road","Columbia","MD","21044"
"Maryland SoccerPlex","18031 Central Park Circle","Boyds","MD","20841"
"Mason District Park","6621 Columbia Pike","Annandale","VA","22003"
"McAuliffe ES","12500 Wisteria Dr","Germantown","MD","20874"
"Mccullough","Intersection of 8th st and Montgomery St","Laurel","MD","20707"
"McDonogh School","8600 McDonogh Road","Owings MIlls","MD","21117"
"McLean HS","1633 Davidson Road","McLean","VA","22101"
"McNair ES","2499 Thomas Jefferson Drive","Herndon","VA","20171"
"Meade HS","1100 Clarke Rd","Ft Meade","MD","20755"
"Mickey Gordon Memorial Park","22670 Carters Farm Lane","Middleburg","VA","20177"
"Millersville ES","Millersville Road","Millersville","MD","21108"
"Milton Somers MS","Willow Ln","LaPlata","MD","20646"
"Minnie Howard MS","3801 West Braddock Road","Alexandria","VA","22302"
"Mitchelleville Road HS Complex","3469 Mitchelleville Road","Bowie","MD","20718"
"Montclair ES","Tallwood Drive","Montclair","VA","22060"
"Montgomery Blair High School","51 University Blvd E","Silver Spring","MD","20901"
"Montgomery Blair HS","51 East University Blvd","Silver Spring","MD","20901"
"Montrose/Grafton School","12301 Academy Way","Rockville","MD","20853"
"Morgan Grove Park","4198 kearneysville pike","shepherdstown","wv 25443",
"Morgans Grove Park","4198 Kearneysville Pike","Shepherdstown","WV","25443"
"Morven Park","41793 Tutt Lane","Leesburg","VA","20176"
"Morven Park","41793 Tutt Lane","Leesburg","VA","20176"
"Morven Park","41793 Tutt Lane","Leesburg","VA","20176"
"Mount Vernon High School","8515 Old Mt Vernon Rd","Alexandria","VA","22309"
"Mountain View Community Church","8330 Fingerboard Road","Frederick","MD","21704"
"Mountain View ES","5600 McLeod Way","Haymarket","VA","20169"
"Moyer Road Park","10000 Moyer Road","Damascus","MD","20872"
"Mt. Hebron High School Turf","9440 Old Frederick Road","Ellicott City","MD","21042"
"Mt. St. Mary's College",,,,
"Muddy Hole Park","7900 Kidd Street","Mt Vernon","VA","22309"
"Muldoon's #6","18362-18599 Beallsville Road","Poolesville","MD","20837"
"Muldoon's Farm","18362-18599 Beallsville Road","Poolesville","MD","20837"
"Muldoon's Farm","18362-18599 Beallsville Road","Poolesville","MD","20837"
"Muldoons Farm","18911 Beallsville Road","Poolesville","MD","20837"
"Murphy Field",,,,
"MYS Field","1301 SpringHill Road","McLean","VA","22101"
"Nantucket ES","2350 Nantucket Road","Crofton","MD","21114"
"National Cathedral School","3490 Woodley Road","20016",,
"New Market Field","5760 Royal Oak Ave","New Market","MD","21774"
"New Town (Vista) Field","15700 East Haven Lane,","Bowie","MD","20716"
"Nike Missile Park","8500 Snouffer School Rd","Gaithersburg","MD","20879"
"Nike Missle","8500 Snouffer School Rd","Gaithersburg","md Gaithersbu",
"Nike Park","Utterback Store Road at Route 7","Great Falls","VA","22066"
"Nokesville Park","Aden Road","Nokesville","VA",
"Nolte Park","200 Denver Rd","Silver Spring","MD","20910"
"North County HS","10 East 1st Ave","Glen Burnie","MD","21061"
"North Four Corners Local Park","311 University Blvd West","Silver Spring","MD","20901"
"Northern Fauquier Community Park","4155 Monroe Parkway","Marshall","Va 20115",
"Nottoway Park","9601 Courthouse Rd","Vienna","VA","22181"
"NOVA/NVCC  Loudoun","1000 Harry Flood Byrd Hwy","Sterling","VA","20165"
"Oak Hill Elementary School","34 Truckhouse Road","Severna Park","MD","21146"
"Oak Marr Park","3200 Jermantown Road","Oakton","VA","22124"
"Oakdale High School","5850 Eaglehead Drive","Ijamsville","MD","21754"
"Oakdale HS","5850 Eagle Head Drive","Ijamsville","MD","21754"
"Oakland Mills High School","9410 Kilimanjaro Road","Columbia","MD","21045"
"Oakton HS","2900 Sutton Rd","Vienna","VA","22181"
"Oakton HS Stadium","2900 Sutton Road","Vienna","VA","22181"
"OBGC Community Park","4501 Route 108","Olney","MD","20832"
"Occoquan ES","12915 Occoquan Road","Woodbridge","VA","22192"
"Occoquan Regional Park","9620 Ox Road","Lorton","VA","22079"
"Ogle Field","4111 Chelmont Lane","Bowie","MD","20715"
"Oklahoma Road MS","6300 Oklahoma Road","Eldersburg","MD","21784"
"Old Creek ES","9524 Old Creek Drive","Fairfax","VA","22032"
"Old Liberty Park","114 Old Liberty Road","Sykesville","MD","21784"
"Old Mill HS","600 Patriot Ln","Millersville","MD","21108"
"Old Mill Park","Caroline Street","Fredericksburg","VA","22405"
"Old National Pike Park","12406 Old National Pike","Mt Airy","MD","21771"
"Orchard ES","4275 Middle Road","Winchester","VA","22602"
"Ossian Hall Park","7900 Heritage Drive","Annandale","VA","22003"
"Our Lady of Good Counsel High School","17301 Old Vic Blvd","Olney","MD","20832"
"Ovid Hazen Wells Park","12001 Skylark Road","Clarksburg","MD","20871"
"Oxon Hill High School","6701 Leyte Drive","Oxon Hill","MD","20745"
"Oxon Hill High School","6701 Leyte Drive","Oxon Hill","MD","20745"
"Paint Branch High School","14121 Old Columbia Pike","Burtonsville","MD","20866"
"Palisades","5200 Sherier Place NW","Washington","DC","20016"
"Park View HS","400 W Laurel Ave","Sterling","VA","20164"
"Parkland MS","4610 West Frankfort Drive","Rockville","MD",
"Pat Rodio Field","Keith Avenue","Fairfax","VA",
"Patawomeck Park","342 Widewater Rd","Stafford","VA","22555"
"Patriot High School","10504 Kettle Run Rd","Nokesville","VA","20181"
"Patriot Park (Fairfax)","12111 Braddock Road","Fairfax","VA","22030"
"Patriot Park (Fredericksburg)","5710 Smith Station Road","Fredericksburg","VA","22407"
"Paul VI High School","10675 Fairfax Blvd","Fairfax","VA","22030"
"Pearson ES","9347 Bastable Mill Rd","Catlett","VA","20119"
"Penn Elementary School","12980 Queen Chapel Road","Woodbridge","VA","22193"
"Perry Hall Christian School","3919 Schroeder Avenue","Perry Hall","MD",
"Phil Bolen Park","42405 Claudia Drive","Leesburg","VA","20175"
"Pine Ridge Park","Woodburn Rd","Annandale","VA","22003"
"Pine Spring ES","7607 Willow lane","Falls Church","VA","22042"
"Piney Ridge ES","6315 Freedom Avenue","Sykesville","MD","21784"
"Plum Ctr ( old Edsall Park Ctr)","6815 Edsall Raod","Springfield","VA","22151"
"Plum Ctr ( old Edsall Park Ctr)","6815 Edsall Raod","Springfield","VA","22151"
"Plum Point ES","1245 Plum Point Road","Huntingtown","MD","20639"
"Poe MS","7000 Cindy Lane","Annandale","VA","22003"
"Police Field","1437 Balls Hills Rd","McLean","VA","22101"
"Poolesville ES","19565 Fisher Ave","Poolesville","MD","20837"
"Pope's Head Park","Popes Head Road and Revercomb Court","Fairfax","VA","22030"
"Poplar Ridge Park","1710 Poplar Ridge Road","Pasadena","MD","21122"
"Poplar Tree Park","4718 Stringfellow Road","Chantilly","VA","20152"
"Potomac Lakes-Paul Hencken","20280 Cascades Parkway","Sterling","VA","20165"
"Potomac Yards","Route 1","Alexandria","VA","22301"
"Potowmack ES","46465 Esterbrook Circle","Sterling","VA","20165"
"Powhatan","6020 Wilson Blvd","Arlington","VA","22205"
"Prince Georges Community College","301 Largo Rd","Largo","MD","20774"
"Providence Park","West Drive","Fairfax City","VA","22030"
"Quartermaster (Gary Braithwaite)","11395 Glade Drive","Reston","VA","20191"
"Queen Anne School","14111 Oak Grove Road","Upper Marlboro","MD","20774"
"Quincy Street","1019 N Quincy St","Arlington","VA","22201"
"Rachel Carson MS","13618 McLearen Road","Herndon","VA","20171"
"Randall Recreation Center","25 I Street","SW","Washington","DC"
"Ray Muth Park","20971 Marblehead Drive","Ashburn","VA","20147"
"Redland LP","17210 Redland Road","Rockville","MD","20855"
"Reisterstown Regional Park","401 Mitchell Drive","Reisterstown","MD","2136"
"Reisterstown Regional Park","401 Mitchell Drive","Reisterstown","MD","2136"
"Renaissance Park",,,,
"Reservoir High School","11550 Scaggsville Road","Fulton","MD","20759"
"Richard Montgomery High School","250 Richard Montgomery Dr","Rockville","MD","20850"
"Richard Montgomery High School","250 Richard Montgomery Dr","Rockville","MD","20850"
"Richard Montgomery HS","MD",,,
"Ridge Road","MD",,,
"Ridge Road Rec Center  DC","800 Ridge Rd SE","Washington","DC","20019"
"Ridge Road Recreational Park","21155 Frederick Road","Germantown","MD",
"Ridge Road Recreational Park","21155 Frederick Road","Germantown","MD",
"Ridge Road Soccer Complex","Ridge Road","Martinsburg","WV","25403"
"Riggs LaSalle Community Center","501 Riggs Rd","NE","Washington","DC"
"Riva Park","3639 Riva Road","Davidsonville","MD","21035"
"River Bend MS","46240 Algonkian Pkwy","Sterling","VA","20165"
"Rivers Edge Farm","8707 Liberty Rd","Frederick","MD","21701"
"Riverside Center Park","1801 Monocacy Blvd","Frederick","MD","21701"
"Riverside HS","19019 Upper Belmont Pl","Leesburg","VA","20176"
"Riverwood Park","Manor View Road","Davidsonville","MD","21035"
"Roberto Clemente MS","8808 Waring Station Road","Germantown","MD",
"Robinson HS","5035 Sideburn Rd","Fairfax","VA","22032"
"Rock Creek Hills LP","3701 Saul Road","Kensington","MD","20895"
"Rock Ridge HS","43460 Loudoun Reserve Drive","Ashburn","VA","20148"
"Rockburn Branch Park East Area","5400 Landing Road","Elkridge","MD","21075"
"Rockland Woods Elementary","18201 Rockland Drive","Hagerstown","MD","21740"
"Rocky Hill MS","22401 Brick Haven Way","Clarksburg","MD","20871"
"Rocky Run MS","4400 Stringfellow Road","Chantilly","VA","20151"
"Rolling Valley West Park","6540 Sydenstricker Rd","Springfield","VA","22152"
"Rolling Valley West Park","6540 Sydenstricker Rd","Springfield","VA","22152"
"Rosa Lee Carter ES","43330 Loudoun Reserve Drive","Ashburn","VA","20148"
"Rosedale Center","8200 Old Philadelphia Road","Baltimore","MD",
"Rosedale Rec Center  DC","1701 Gales Street","NE","Washington","DC"
"Route 108","4401 Route 108","Olney","MD","20832"
"Rudolph Recreation Center","2nd &amp; Hamilton Streets NW","Washington","DC","20011"
"Ruritan Community Center","3358 Davidsonville Rd","Davidsonville","MD","21035"
"Saddlebrook Community Park (Bowie)","8110 Race Track Road","Bowie","MD","20715"
"Sam Michael Field","235 Sam Michael's Lane","Shenandoah Junction","WV","25442"
"Sandy Springs Friends School","16923 Norwood Road","Sandy Springs","MD","20906"
"Sarem Farm","15887 Old Columbia Pike","Burtonsville","MD","20866"
"Sasscer Field","14201 School Lane","Upper Marlboro","MD","20772"
"Schooley Mill Park","12975 Hall Shop Road","Highland","MD","20777"
"Seibel Farms","1001 Green Valley Road","New Windsor","MD",
"Severn School","201 Water St","Severna Park","MD","21146"
"Severna Park HS","60 Robinson Rd","Severna Park","MD","21146"
"Shenandoah Christian Academy","4701 Valley Pike / PO Box 1360","Stevens City","VA","22655"
"Shenandoah University","University Drive","Winchester","VA","22601"
"Shepherd ES","7800 14th St NW","Washington","DC","20012-1490"
"Shepherd University Soccer Complex","University Drive","Shepherdstown","WV","25443"
"Sherando","Fairfax Pike","Stephens City","VA","22655"
"Shrevewood ES","7525 Shreve Road","Falls Church","VA","22043"
"Sidwell Friends","3825 Wisconsin Ave","NW,",,
"Silver Spring International MS","313 Wayne Ave","Silver Spring","MD","20910"
"Simpson MS","490 Evergreen Mill Rd SE","Leesburg","VA","20175"
"Simpson Soccer Field","ugene Simpson Stadium Park on 426 East Mo","Alexandria","VA","22301"
"Simpson Soccer Field","ugene Simpson Stadium Park on 426 East Mo","Alexandria","VA","22301"
"Simpson Soccer Fields","Eugene Simpson Stadium Park on 426 East Mo","Alexandria","VA","22301"
"Skyline Soccerplex","100 Kerfoot Ave","Front Royal","VA","22630"
"Smith Lake Park","370 Doc Stone Road","Stafford","VA","22554"
"Smithsburg Youth Athletics Brooke Lane",,,,
"Solomons Town Center","13150 Dowell Road","Solomons","MD","20678"
"Solomons Town Center","13150 Dowell Road","Solomons","MD","20678"
"SOLOMONS TOWN CENTER  #3",,,,
"Sonnie PENN Elementary","12980 Queen Chapel Road","Woodbridge","VA","22192"
"South County HS","8501 Silverbrook RD","Lorton","VA","22079"
"South County Middle School","8700 Laurel Crest Drive","Lorton","VA","22079"
"South County MS Turf","8700 Laurel Crest Dr","Lorton","VA","22079"
"South Gunners Branch LP","12958 Prairie Knoll Ct","Germantown","MD","20874"
"South Jefferson Park","4095 Leetown Rd","Summit Point","WV","25446"
"South Jefferson Park","4095 Leetown Rd","Summit Point","WV","25446"
"South Lakes High School","11400 South Lakes Drive","Reston","VA","20191"
"South River HS","201 Central Ave","East Edgewater","MD","21037"
"South Run","7550 Reservation Dr","Springfield","VA",
"South Run Dt. Park","7550 Reservation Drive","Springfield","VA","22153"
"South Run Park","Fairfax County Parkway","Springfield","VA","22153"
"Southern High School","4400 Solomons Island Road","Harwood","MD","20776"
"Southern Middle School (Calvert Co.)","9615 HG Trueman Rd","Lusby","MD","20675"
"Spaulding High School",,,,
"Sprague Center","4414 Holborn Avenue","Annandale","VA","22180"
"Spring Hill","1239 Spring Hill Rd","McLean","VA","22102"
"Spring Hill ES","8201 Lewinsville Rd","McLean","VA","22101"
"Spring Hill Rec Center","1239 Springhill Rd","McLean","VA","22101"
"Spring Mills High School","499 Campus Drive","Martinsburg","WV","25404"
"Spring Ridge ES","9051 Ridgefield Drive","Frederick","MD",
"St Mary's HS Turf  Annapolis","620 Bestgate Rd","Annapolis","MD","21401"
"St Timothys","8400 Greenspring Ave","Stevenson","MD","21153"
"St Veronica's","3460 Centreville Road","Chantilly","VA","20151"
"St. James Academy","3100 Monkton Rd","Monkton","MD","21111"
"St. James School","17641 College Road","Hagerstown","MD","21740"
"St. John Vianney Catholic Church","105 Vianney Lane","Prince Frederick","MD","20678"
"St. John's Catholic Prep","3989 Buckeystown Pike","Buckeystown","MD","21717"
"St. Leonard Park (Grover Field)","4825 Maryland Ave","St Leonard","MD","20685"
"St. Lukes small sided","1211 E Grandview Ave","Culpeper","VA","22701"
"St. Mary's Ryken High School","22600 Camp Calvert Road","Leonardtown","MD","20650"
"St. Paul's School","11152 Falls Rd","Brooklandville","MD","21022"
"St. Stephens / St. Agnes Turf","1000 St Stephen's Road","Alexandria","VA","22304"
"Stafford Drive Park","Stafford Drive","Fairfax","VA","22030"
"Stone Ridge #2","Stone Springs Blvd","Aldie","VA","20105"
"Stonegate Park","14920 Notley Road","Cloverly","MD","20905"
"Stonehedge Local Park","12121 Old Columbia Pike","Silver Spring","MD",
"Stratton Woods","2431 Fox Mill Rd","Herndon","VA","20171"
"Strawberry Knoll Park","18810 Strawberry Knoll Road","Gaithersburg","MD","20879"
"Stringfellow Park","Autumn Willow Dr","Centreville","VA","20121"
"Stuart HS","3301 Peace Valley Ln","Falls Church","VA","22044"
"Stuart Weller",,,,
"Sully Highlands","13800 Wall Road","Oak Hill","VA","20171"
"Supplee","6850 Brooklyn Bridge Road","Laurel","MD","20707"
"Swanson MS","5800 Washington Blvd","Arlington","VA","22205"
"SYA Complex","6626 Bull Run Post Office Road","Centreville","Va 20120",
"Sykesville MS","7301 Springfield Avenue","Sykesville","MD","21784"
"Takoma Rec Center","3rd &amp; Van Buren St","NW","Washington","DC"
"Taylor MS","350 East Shirley Avenue","Warrenton","VA","20187"
"TC Williams H.S","3330 King Street","Alexandria","VA","22302"
"Terra Centre ES","Burke Centre Parkway","Burke","VA","22015"
"The Calverton School","300 Calverton School Road","Huntingtown","MD","20639"
"Thomas Jefferson","3501 S 2nd St,","Arlington","VA","22204"
"Thomas Jefferson High School","6560 Braddock Rd","Alexandria","VA","22312"
"Thunder Hill ES",,,,
"Tilden Center","6400 Tilden Lane","Rockville","MD","20855"
"Tildon MS","11211 Old Georgetown Rd","Rockville","MD","20852"
"Timberlane ES","2737 West Street","Falls Church","VA","22042"
"Towson University","Towson","MD",,
"Trinidad Rec. Center","1310 Childress St NE","Washington","DC","20002"
"Trinidad Recreation Center","1310 Childress St","NE","Washington","DC"
"Troy Park","6500 Mansion Ln","Elkridge","MD","21075"
"Turkey Hill Park","Turkey Hill Road","La Plata","MD","20646"
"Tuscarora High School","801 North King Street","Leesburg","VA",
"Tuscarora HS","801 N King Street","Leesburg","VA","20176"
"Twin Shields","Twin Shields Drive","Owings","MD","20736"
"Tyrell Park","14350 Veterans Drive","Woodbridge","VA","22191"
"UDC Field","4200 Conneticut Ave NW","Washington","DC","20008"
"UMCC Upper Malboro Community Center","5400 Marlboro Race Track Road","Upper Marlboro","MD","20772"
"Upper Marlboro Community Center","5400 Marlboro Race Track Road","Upper Marlboro","MD","20772"
"Urbana High School","3471 Campus Drive","Ijamsville","MD","21754"
"Utica Park","10200B Old Frederick Rd","Frederick","MD","21701"
"Valley View","11930 Valley View Drive","Bristow","VA","20136"
"VEPCO Soccer Fields","14101 Mapledale Dr","Dale City","VA","22193"
"Vienna Adventist Academy","340 Courthouse Road SW","Vienna","VA","22180"
"Virginia Highlands","1600 S Hayes St","Arlington","VA","22202"
"Wakefield HS","1325 S Dinwiddie Street","Arlington","VA","22206"
"Wakefield Park","8100 Braddock Road","Annandale","VA","22003"
"Walker Mill Regional Park","8100 Walker Mill Road","District Heights","MD","20747"
"Walter Johnson High School","6400 Rock Springs Drive","Bethesda","MD","20814"
"Waring Station LP","12215 Stony Bottom Road","Germantown","MD","20875"
"Washington Adventist University","7600 Flower Avenue","Takoma Park","MD","20912"
"Washington Bible College","6511 Princess Garden Pkwy","Lanham","MD",
"Washington-Lee HS","1301 N Stafford Street","Arlington","VA","22201"
"Waters Landing LP","13701 Waters Landing Drive","Germantown","MD","20874"
"Watkins Elementary School  DC","420 12th Street Southeast","Washington","DC","20003"
"Waugh Chapel ES","Sunflower Lane","Odenton","MD","21113"
"Waugh Chapel ES","Sunflower Lane","Odenton","MD","21113"
"Webster Lane","7380 Webster Ln","Fort Washington","MD","20744"
"Weems-Whalen Field","935 Spa Road","21401",,
"West Potomac HS","6500 Quander Road,","Alexandria","VA","22308"
"West Springfield HS","6100 Rolling Road","Springfield","VA","22152"
"Western Regional Park","14800 Carrs Mill Road","Woodbine","MD","21797"
"Westfield High School","4700 Stonecroft Blvd","Chantilly","VA","20151"
"Westfield HS","4700 Stonecroft Blvd","Chantilly","VA","20151"
"Weyenoke ES","6520 Braddock Road","Alexandria","VA","22312"
"Wheaton High School","12601 Dalewood D","Wheaton","MD","20906"
"Wheaton Woods Elementary","4510 Faroe Place","Rockville","MD","20853"
"White Plains","St Charles Pkwy","White Plains","MD","20602"
"White Plains Regional Park","1015 St Charles Parkway","White Plains","MD","20695"
"Whitehall ES","3901 Woodhaven Lane","Bowie","MD","20715"
"Whittier/Greenleaf Park","1950 East Greenleaf Drive","Frederick","MD","21702"
"Wilde Lake High School","5460 Trumpeter Rd","Columbia","MD","21044"
"William Tyler Page ES","13400 Tamarack Rd","Silver Spring","MD","20904"
"Williamsburg MS","3600 N Harrison St","Arlington","VA","22207"
"Williamsburg MS","3600 N Harrison St","Arlington","VA","22207"
"Willowmere Park","21 Willowmere Pond Road","Stafford","VA","22559"
"Willowmere Park","21 Willowmere Pond Road","Stafford","VA","22559"
"Winterset/Varsity Park","3911 Woodburn Rd","Annandale","VA","22003"
"Witter Fields Complex","2600 Witter Street","Alexandria","VA","22314"
"Wolf Trails","Old Courthouse Rd","Vienna","VA","22182"
"Wood LP","14601 Bauer Dr","Rockville","MD","20853"
"Woodfield ES","24200 Woodfield Rd","Gaithersburg","MD","20879"
"Woodgrove","17020 Evening Star Road","Round Hill","VA","20132"
"Woodgrove HS","36811 Allder School Road","Purcellville","VA","20148"
"Woodrow Wilson HS","3950 Chesapeake St NW","Washington","DC","20016"
"Wootton High School","2100 Wootton Pkwy","Rockville","MD","20850"
"Word of Grace","13832 Redskin Drive","Oak Hill","VA","20171"
"WSSC Field - Laurel","14500 Sweitzer Lane","Laurel","MD","20707"
"WT Woodson HS","9525 Main St","Fairfax","VA","22032"
"x","3330 Northview Drive","Bowie","MD","20716"
"Z - need to be deleted",,,,
"Z - need to be deleted",,,,
"Z - Need to be deleted","Reston","VA","20191",
"New Market Park","5760 Royal Oaks Drive","New Market","MD",
